ORBCOMM FM05            
1 25117U 97084F   25218.78968219  .00001027  00000+0  32552-3 0  9991
2 25117  45.0145 125.0695 0002004  69.3774 290.7292 14.46063720447938
ORBCOMM FM06            
1 25118U 97084G   25218.78443940  .00001083  00000+0  34014-3 0  9998
2 25118  45.0138 124.7770 0001398  41.9470 357.2129 14.46201777448851
ORBCOMM FM07            
1 25119U 97084H   25218.79037558  .00001185  00000+0  36832-3 0  9997
2 25119  45.0134 125.5157 0002863  75.5487 284.5682 14.46205084448845
ORBCOMM FM03            
1 25158U 98007B   25218.88955583  .00000696  00000+0  28980-3 0  9994
2 25158 107.9676 239.7681 0044460 162.4318 197.8371 14.34597089431316
ORBCOMM FM04            
1 25159U 98007C   25218.93478541  .00000741  00000+0  30450-3 0  9991
2 25159 107.9665 243.1174 0040169 159.9744 200.2982 14.34841457431506
ORBCOMM FM17            
1 25413U 98046A   25218.79803717  .00000670  00000+0  28145-3 0  9997
2 25413  44.9956  18.7344 0003315 121.5983 238.5188 14.35170746410448
ORBCOMM FM18            
1 25414U 98046B   25218.90545451  .00000728  00000+0  28137-3 0  9994
2 25414  44.9934 294.2670 0006141 197.6017 162.4620 14.38658237411558
ORBCOMM FM19            
1 25415U 98046C   25218.96119700  .00000813  00000+0  31014-3 0  9998
2 25415  44.9946 296.0814 0004866 198.0570 331.6390 14.38469470411512
